ONEWEB-0092             
1 45437U 20020P   25231.11236488  .00000603  00000+0  16667-2 0  9999
2 45437  87.8789  81.2589 0001735  92.0051 268.1275 13.11416442263197
ONEWEB-0085             
1 45438U 20020Q   25230.84133872 -.00000613  00000+0 -17802-2 0  9997
2 45438  87.8784  81.3274 0001705  89.4956 270.6367 13.10857131263043
ONEWEB-0096             
1 45439U 20020R   25230.84531780 -.00000522  00000+0 -15087-2 0  9990
2 45439  87.8798  81.2933 0001885  80.2967 279.8374 13.11416490263038
ONEWEB-0037             
1 45440U 20020S   25230.82582356  .00000059  00000+0  13002-3 0  9994
2 45440  87.8798  81.2620 0001720  87.7528 272.3796 13.11416093263064
ONEWEB-0042             
1 45441U 20020T   25230.83499005 -.00000366  00000+0 -10682-2 0  9997
2 45441  87.8787  81.3033 0001812  87.4121 272.7214 13.11413631263031
ONEWEB-0098             
1 45442U 20020U   25230.83090960 -.00000186  00000+0 -56110-3 0  9992
2 45442  87.8788  81.3144 0001501  78.1443 281.9854 13.11415384263012
ONEWEB-0055             
1 45443U 20020V   25231.11915178  .00000552  00000+0  15213-2 0  9995
2 45443  87.8785  81.2582 0001678  82.5840 277.5478 13.11415175263033
ONEWEB-0093             
1 45444U 20020W   25231.09469577  .00000029  00000+0  45354-4 0  9990
2 45444  87.8789  81.2483 0002208  85.9012 274.2368 13.11419073263095
ONEWEB-0029             
1 45445U 20020X   25231.11067747  .00000569  00000+0  15707-2 0  9993
2 45445  87.8789  81.2573 0001862  81.8999 278.2340 13.11416043263076
ONEWEB-0068             
1 45446U 20020Y   25231.09440247  .00000116  00000+0  29040-3 0  9995
2 45446  87.8791  81.2493 0001893  81.0593 279.0749 13.11416971263013
ONEWEB-0046             
1 45447U 20020Z   25230.85718296 -.00000387  00000+0 -11292-2 0  9992
2 45447  87.8791  81.3069 0001923  89.0133 271.1215 13.11418151262984
ONEWEB-0063             
1 45448U 20020AA  25230.88602141  .00000582  00000+0  16070-2 0  9991
2 45448  87.8788  81.2992 0001731  91.4652 268.6674 13.11415575263073
ONEWEB-0019             
1 45449U 20020AB  25231.08862332 -.00000137  00000+0 -42173-3 0  9997
2 45449  87.8783  81.2759 0001716  81.0707 279.0615 13.11418306262951
ONEWEB-0094             
1 45450U 20020AC  25230.90197948  .00000023  00000+0  26027-4 0  9996
2 45450  87.9028  65.9832 0001840  88.3445 271.7897 13.17890559266500
ONEWEB-0087             
1 45451U 20020AD  25230.81973054  .00000245  00000+0  65642-3 0  9998
2 45451  87.8782  81.2621 0001964  82.4373 277.6978 13.11417124262953
ONEWEB-0082             
1 45452U 20020AE  25231.12170450  .00000444  00000+0  12181-2 0  9993
2 45452  87.8787  81.2271 0001791  79.1858 280.9471 13.11414824263094
ONEWEB-0050             
1 45453U 20020AF  25230.67270499  .00001911  00000+0  19110-3 0  9997
2 45453  87.9951 279.4846 0002779  41.0864 319.0574 14.90959634295342
