[{"OBJECT_NAME":"ONEWEB-0092","OBJECT_ID":"2020-020P","EPOCH":"2025-08-19T02:41:48.325632","MEAN_MOTION":13.11416442,"ECCENTRICITY":0.0001735,"INCLINATION":87.8789,"RA_OF_ASC_NODE":81.2589,"ARG_OF_PERICENTER":92.0051,"MEAN_ANOMALY":268.1275,"EPHEMERIS_TYPE":0,"CLASSIFICATION_TYPE":"U","NORAD_CAT_ID":45437,"ELEMENT_SET_NO":999,"REV_AT_EPOCH":26319,"BSTAR":0.0016667,"MEAN_MOTION_DOT":6.03e-6,"MEAN_MOTION_DDOT":0},{"OBJECT_NAME":"ONEWEB-0085","OBJECT_ID":"2020-020Q","EPOCH":"2025-08-18T20:11:31.665408","MEAN_MOTION":13.10857131,"ECCENTRICITY":0.0001705,"INCLINATION":87.8784,"RA_OF_ASC_NODE":81.3274,"ARG_OF_PERICENTER":89.4956,"MEAN_ANOMALY":270.6367,"EPHEMERIS_TYPE":0,"CLASSIFICATION_TYPE":"U","NORAD_CAT_ID":45438,"ELEMENT_SET_NO":999,"REV_AT_EPOCH":26304,"BSTAR":-0.0017802,"MEAN_MOTION_DOT":-6.13e-6,"MEAN_MOTION_DDOT":0},{"OBJECT_NAME":"ONEWEB-0096","OBJECT_ID":"2020-020R","EPOCH":"2025-08-18T20:17:15.457920","MEAN_MOTION":13.1141649,"ECCENTRICITY":0.0001885,"INCLINATION":87.8798,"RA_OF_ASC_NODE":81.2933,"ARG_OF_PERICENTER":80.2967,"MEAN_ANOMALY":279.8374,"EPHEMERIS_TYPE":0,"CLASSIFICATION_TYPE":"U","NORAD_CAT_ID":45439,"ELEMENT_SET_NO":999,"REV_AT_EPOCH":26303,"BSTAR":-0.0015087,"MEAN_MOTION_DOT":-5.22e-6,"MEAN_MOTION_DDOT":0},{"OBJECT_NAME":"ONEWEB-0037","OBJECT_ID":"2020-020S","EPOCH":"2025-08-18T19:49:11.155584","MEAN_MOTION":13.11416093,"ECCENTRICITY":0.000172,"INCLINATION":87.8798,"RA_OF_ASC_NODE":81.262,"ARG_OF_PERICENTER":87.7528,"MEAN_ANOMALY":272.3796,"EPHEMERIS_TYPE":0,"CLASSIFICATION_TYPE":"U","NORAD_CAT_ID":45440,"ELEMENT_SET_NO":999,"REV_AT_EPOCH":26306,"BSTAR":0.00013002,"MEAN_MOTION_DOT":5.9e-7,"MEAN_MOTION_DDOT":0},{"OBJECT_NAME":"ONEWEB-0042","OBJECT_ID":"2020-020T","EPOCH":"2025-08-18T20:02:23.140320","MEAN_MOTION":13.11413631,"ECCENTRICITY":0.0001812,"INCLINATION":87.8787,"RA_OF_ASC_NODE":81.3033,"ARG_OF_PERICENTER":87.4121,"MEAN_ANOMALY":272.7214,"EPHEMERIS_TYPE":0,"CLASSIFICATION_TYPE":"U","NORAD_CAT_ID":45441,"ELEMENT_SET_NO":999,"REV_AT_EPOCH":26303,"BSTAR":-0.0010682,"MEAN_MOTION_DOT":-3.66e-6,"MEAN_MOTION_DDOT":0},{"OBJECT_NAME":"ONEWEB-0098","OBJECT_ID":"2020-020U","EPOCH":"2025-08-18T19:56:30.589440","MEAN_MOTION":13.11415384,"ECCENTRICITY":0.0001501,"INCLINATION":87.8788,"RA_OF_ASC_NODE":81.3144,"ARG_OF_PERICENTER":78.1443,"MEAN_ANOMALY":281.9854,"EPHEMERIS_TYPE":0,"CLASSIFICATION_TYPE":"U","NORAD_CAT_ID":45442,"ELEMENT_SET_NO":999,"REV_AT_EPOCH":26301,"BSTAR":-0.0005611,"MEAN_MOTION_DOT":-1.86e-6,"MEAN_MOTION_DDOT":0},{"OBJECT_NAME":"ONEWEB-0055","OBJECT_ID":"2020-020V","EPOCH":"2025-08-19T02:51:34.713792","MEAN_MOTION":13.11415175,"ECCENTRICITY":0.0001678,"INCLINATION":87.8785,"RA_OF_ASC_NODE":81.2582,"ARG_OF_PERICENTER":82.584,"MEAN_ANOMALY":277.5478,"EPHEMERIS_TYPE":0,"CLASSIFICATION_TYPE":"U","NORAD_CAT_ID":45443,"ELEMENT_SET_NO":999,"REV_AT_EPOCH":26303,"BSTAR":0.0015213,"MEAN_MOTION_DOT":5.52e-6,"MEAN_MOTION_DDOT":0},{"OBJECT_NAME":"ONEWEB-0093","OBJECT_ID":"2020-020W","EPOCH":"2025-08-19T02:16:21.714528","MEAN_MOTION":13.11419073,"ECCENTRICITY":0.0002208,"INCLINATION":87.8789,"RA_OF_ASC_NODE":81.2483,"ARG_OF_PERICENTER":85.9012,"MEAN_ANOMALY":274.2368,"EPHEMERIS_TYPE":0,"CLASSIFICATION_TYPE":"U","NORAD_CAT_ID":45444,"ELEMENT_SET_NO":999,"REV_AT_EPOCH":26309,"BSTAR":4.5354e-5,"MEAN_MOTION_DOT":2.9e-7,"MEAN_MOTION_DDOT":0},{"OBJECT_NAME":"ONEWEB-0029","OBJECT_ID":"2020-020X","EPOCH":"2025-08-19T02:39:22.533408","MEAN_MOTION":13.11416043,"ECCENTRICITY":0.0001862,"INCLINATION":87.8789,"RA_OF_ASC_NODE":81.2573,"ARG_OF_PERICENTER":81.8999,"MEAN_ANOMALY":278.234,"EPHEMERIS_TYPE":0,"CLASSIFICATION_TYPE":"U","NORAD_CAT_ID":45445,"ELEMENT_SET_NO":999,"REV_AT_EPOCH":26307,"BSTAR":0.0015707,"MEAN_MOTION_DOT":5.69e-6,"MEAN_MOTION_DDOT":0},{"OBJECT_NAME":"ONEWEB-0068","OBJECT_ID":"2020-020Y","EPOCH":"2025-08-19T02:15:56.373408","MEAN_MOTION":13.11416971,"ECCENTRICITY":0.0001893,"INCLINATION":87.8791,"RA_OF_ASC_NODE":81.2493,"ARG_OF_PERICENTER":81.0593,"MEAN_ANOMALY":279.0749,"EPHEMERIS_TYPE":0,"CLASSIFICATION_TYPE":"U","NORAD_CAT_ID":45446,"ELEMENT_SET_NO":999,"REV_AT_EPOCH":26301,"BSTAR":0.0002904,"MEAN_MOTION_DOT":1.16e-6,"MEAN_MOTION_DDOT":0},{"OBJECT_NAME":"ONEWEB-0046","OBJECT_ID":"2020-020Z","EPOCH":"2025-08-18T20:34:20.607744","MEAN_MOTION":13.11418151,"ECCENTRICITY":0.0001923,"INCLINATION":87.8791,"RA_OF_ASC_NODE":81.3069,"ARG_OF_PERICENTER":89.0133,"MEAN_ANOMALY":271.1215,"EPHEMERIS_TYPE":0,"CLASSIFICATION_TYPE":"U","NORAD_CAT_ID":45447,"ELEMENT_SET_NO":999,"REV_AT_EPOCH":26298,"BSTAR":-0.0011292,"MEAN_MOTION_DOT":-3.87e-6,"MEAN_MOTION_DDOT":0},{"OBJECT_NAME":"ONEWEB-0063","OBJECT_ID":"2020-020AA","EPOCH":"2025-08-18T21:15:52.249824","MEAN_MOTION":13.11415575,"ECCENTRICITY":0.0001731,"INCLINATION":87.8788,"RA_OF_ASC_NODE":81.2992,"ARG_OF_PERICENTER":91.4652,"MEAN_ANOMALY":268.6674,"EPHEMERIS_TYPE":0,"CLASSIFICATION_TYPE":"U","NORAD_CAT_ID":45448,"ELEMENT_SET_NO":999,"REV_AT_EPOCH":26307,"BSTAR":0.001607,"MEAN_MOTION_DOT":5.82e-6,"MEAN_MOTION_DDOT":0},{"OBJECT_NAME":"ONEWEB-0019","OBJECT_ID":"2020-020AB","EPOCH":"2025-08-19T02:07:37.054848","MEAN_MOTION":13.11418306,"ECCENTRICITY":0.0001716,"INCLINATION":87.8783,"RA_OF_ASC_NODE":81.2759,"ARG_OF_PERICENTER":81.0707,"MEAN_ANOMALY":279.0615,"EPHEMERIS_TYPE":0,"CLASSIFICATION_TYPE":"U","NORAD_CAT_ID":45449,"ELEMENT_SET_NO":999,"REV_AT_EPOCH":26295,"BSTAR":-0.00042173,"MEAN_MOTION_DOT":-1.37e-6,"MEAN_MOTION_DDOT":0},{"OBJECT_NAME":"ONEWEB-0094","OBJECT_ID":"2020-020AC","EPOCH":"2025-08-18T21:38:51.027072","MEAN_MOTION":13.17890559,"ECCENTRICITY":0.000184,"INCLINATION":87.9028,"RA_OF_ASC_NODE":65.9832,"ARG_OF_PERICENTER":88.3445,"MEAN_ANOMALY":271.7897,"EPHEMERIS_TYPE":0,"CLASSIFICATION_TYPE":"U","NORAD_CAT_ID":45450,"ELEMENT_SET_NO":999,"REV_AT_EPOCH":26650,"BSTAR":2.6027e-5,"MEAN_MOTION_DOT":2.3e-7,"MEAN_MOTION_DDOT":0},{"OBJECT_NAME":"ONEWEB-0087","OBJECT_ID":"2020-020AD","EPOCH":"2025-08-18T19:40:24.718656","MEAN_MOTION":13.11417124,"ECCENTRICITY":0.0001964,"INCLINATION":87.8782,"RA_OF_ASC_NODE":81.2621,"ARG_OF_PERICENTER":82.4373,"MEAN_ANOMALY":277.6978,"EPHEMERIS_TYPE":0,"CLASSIFICATION_TYPE":"U","NORAD_CAT_ID":45451,"ELEMENT_SET_NO":999,"REV_AT_EPOCH":26295,"BSTAR":0.00065642,"MEAN_MOTION_DOT":2.45e-6,"MEAN_MOTION_DDOT":0},{"OBJECT_NAME":"ONEWEB-0082","OBJECT_ID":"2020-020AE","EPOCH":"2025-08-19T02:55:15.268800","MEAN_MOTION":13.11414824,"ECCENTRICITY":0.0001791,"INCLINATION":87.8787,"RA_OF_ASC_NODE":81.2271,"ARG_OF_PERICENTER":79.1858,"MEAN_ANOMALY":280.9471,"EPHEMERIS_TYPE":0,"CLASSIFICATION_TYPE":"U","NORAD_CAT_ID":45452,"ELEMENT_SET_NO":999,"REV_AT_EPOCH":26309,"BSTAR":0.0012181,"MEAN_MOTION_DOT":4.44e-6,"MEAN_MOTION_DDOT":0},{"OBJECT_NAME":"ONEWEB-0050","OBJECT_ID":"2020-020AF","EPOCH":"2025-08-18T16:08:41.711136","MEAN_MOTION":14.90959634,"ECCENTRICITY":0.0002779,"INCLINATION":87.9951,"RA_OF_ASC_NODE":279.4846,"ARG_OF_PERICENTER":41.0864,"MEAN_ANOMALY":319.0574,"EPHEMERIS_TYPE":0,"CLASSIFICATION_TYPE":"U","NORAD_CAT_ID":45453,"ELEMENT_SET_NO":999,"REV_AT_EPOCH":29534,"BSTAR":0.0001911,"MEAN_MOTION_DOT":1.911e-5,"MEAN_MOTION_DDOT":0}]
